{
    "links": {
        "self": "http://www.neowsapp.com/rest/v1/neo/3433335?api_key=iIulBulltgU6a56xZRHN4H3l9WmuAYTsLGpBGhQ2"
    },
    "id": "3433335",
    "neo_reference_id": "3433335",
    "name": "(2008 UU5)",
    "designation": "2008 UU5",
    "nasa_jpl_url": "http://ssd.jpl.nasa.gov/sbdb.cgi?sstr=3433335",
    "absolute_magnitude_h": 23.3,
    "estimated_diameter": {
        "kilometers": {
            "estimated_diameter_min": 0.058150704,
            "estimated_diameter_max": 0.130028927
        },
        "meters": {
            "estimated_diameter_min": 58.1507039646,
            "estimated_diameter_max": 130.0289270043
        },
        "miles": {
            "estimated_diameter_min": 0.0361331611,
            "estimated_diameter_max": 0.0807962044
        },
        "feet": {
            "estimated_diameter_min": 190.7831555951,
            "estimated_diameter_max": 426.6041048727
        }
    },
    "is_potentially_hazardous_asteroid": false,
    "close_approach_data": [
        {
            "close_approach_date": "2008-10-16",
            "close_approach_date_full": "2008-Oct-16 09:17",
            "epoch_date_close_approach": 1224148620000,
            "relative_velocity": {
                "kilometers_per_second": "9.0371244886",
                "kilometers_per_hour": "32533.6481590606",
                "miles_per_hour": "20215.1437686119"
            },
            "miss_distance": {
                "astronomical": "0.2336796071",
                "lunar": "90.9013671619",
                "kilometers": "34957971.484596877",
                "miles": "21721876.2237438226"
            },
            "orbiting_body": "Earth"
        }
    ],
    "orbital_data": {
        "orbit_id": "9",
        "orbit_determination_date": "2017-04-06 09:02:27",
        "first_observation_date": "2008-10-25",
        "last_observation_date": "2008-11-06",
        "data_arc_in_days": 12,
        "observations_used": 32,
        "orbit_uncertainty": "9",
        "minimum_orbit_intersection": ".227778",
        "jupiter_tisserand_invariant": "3.247",
        "epoch_osculation": "2454768.5",
        "eccentricity": ".5066193223088484",
        "semi_major_axis": "2.476120183401276",
        "inclination": "15.54857604249257",
        "ascending_node_longitude": "209.3331356917128",
        "orbital_period": "1423.16746625151",
        "perihelion_distance": "1.22166985413126",
        "perihelion_argument": "170.5718409446699",
        "aphelion_distance": "3.730570512671292",
        "perihelion_time": "2454749.276302955469",
        "mean_anomaly": "4.862766399697985",
        "mean_motion": ".2529568786083947",
        "equinox": "J2000",
        "orbit_class": {
            "orbit_class_type": "AMO",
            "orbit_class_description": "Near-Earth asteroid orbits similar to that of 1221 Amor",
            "orbit_class_range": "1.017 AU < q (perihelion) < 1.3 AU"
        }
    },
    "is_sentry_object": false
}